{
  "type": "FeatureCollection",
  "features": [
    {
      "type": "Feature",
      "properties": {
        "norad_id": 61182,
        "name": "GSAT0232 (GALILEO 32)",
        "group": "gnss",
        "lat": -48.2240788470972,
        "lon": 97.51682464426926,
        "alt_km": 23222.15636787351,
        "timestamp": "2025-12-07T20:38:14.310602+00:00",
        "meta_object_name": "GSAT0232 (GALILEO 32)",
        "meta_object_id": "2024-167A",
        "meta_epoch": "2025-12-04T05:35:38.594112",
        "meta_mean_motion": 1.70473104,
        "meta_eccentricity": 0.00021975,
        "meta_inclination": 55.2442,
        "meta_ra_of_asc_node": 226.6647,
        "meta_arg_of_pericenter": 213.7297,
        "meta_mean_anomaly": 325.6534,
        "meta_ephemeris_type": 0,
        "meta_classification_type": "U",
        "meta_norad_cat_id": 61182,
        "meta_element_set_no": 999,
        "meta_rev_at_epoch": 755,
        "meta_bstar": 0,
        "meta_mean_motion_dot": 4.1e-07,
        "meta_mean_motion_ddot": 0,
        "tle_line1": "1 61182U 24167A   25338.23308558  .00000041  00000+0  00000+0 0  9996",
        "tle_line2": "2 61182  55.2442 226.6647 0002197 213.7297 325.6534  1.70473104  7557"
      },
      "geometry": {
        "type": "Point",
        "coordinates": [
          97.51682464426926,
          -48.2240788470972
        ]
      }
    },
    {
      "type": "Feature",
      "properties": {
        "norad_id": 61183,
        "name": "GSAT0226 (GALILEO 31)",
        "group": "gnss",
        "lat": -1.822179902549897,
        "lon": -134.6849194468609,
        "alt_km": 23224.228506562908,
        "timestamp": "2025-12-07T20:38:14.310619+00:00",
        "meta_object_name": "GSAT0226 (GALILEO 31)",
        "meta_object_id": "2024-167B",
        "meta_epoch": "2025-12-06T09:26:36.340224",
        "meta_mean_motion": 1.70473292,
        "meta_eccentricity": 7.913e-05,
        "meta_inclination": 55.2417,
        "meta_ra_of_asc_node": 226.6105,
        "meta_arg_of_pericenter": 126.2936,
        "meta_mean_anomaly": 51.6212,
        "meta_ephemeris_type": 0,
        "meta_classification_type": "U",
        "meta_norad_cat_id": 61183,
        "meta_element_set_no": 999,
        "meta_rev_at_epoch": 756,
        "meta_bstar": 0,
        "meta_mean_motion_dot": 3.3e-07,
        "meta_mean_motion_ddot": 0,
        "tle_line1": "1 61183U 24167B   25340.39347616  .00000033  00000+0  00000+0 0  9996",
        "tle_line2": "2 61183  55.2417 226.6105 0000791 126.2936  51.6212  1.70473292  7563"
      },
      "geometry": {
        "type": "Point",
        "coordinates": [
          -134.6849194468609,
          -1.822179902549897
        ]
      }
    },
    {
      "type": "Feature",
      "properties": {
        "norad_id": 61186,
        "name": "BEIDOU-3 M25 (C47)",
        "group": "gnss",
        "lat": 46.728885704339056,
        "lon": -2.229604382601127,
        "alt_km": 21531.94795408093,
        "timestamp": "2025-12-07T20:38:14.310639+00:00",
        "meta_object_name": "BEIDOU-3 M25 (C47)",
        "meta_object_id": "2024-168B",
        "meta_epoch": "2025-12-07T05:53:04.008192",
        "meta_mean_motion": 1.86229774,
        "meta_eccentricity": 0.00054576,
        "meta_inclination": 54.6469,
        "meta_ra_of_asc_node": 308.9099,
        "meta_arg_of_pericenter": 295.3065,
        "meta_mean_anomaly": 75.7113,
        "meta_ephemeris_type": 0,
        "meta_classification_type": "U",
        "meta_norad_cat_id": 61186,
        "meta_element_set_no": 999,
        "meta_rev_at_epoch": 821,
        "meta_bstar": 0,
        "meta_mean_motion_dot": -7.1e-07,
        "meta_mean_motion_ddot": 0,
        "tle_line1": "1 61186U 24168B   25341.24518528 -.00000071  00000+0  00000+0 0  9990",
        "tle_line2": "2 61186  54.6469 308.9099 0005457 295.3065  75.7113  1.86229774  8218"
      },
      "geometry": {
        "type": "Point",
        "coordinates": [
          -2.229604382601127,
          46.728885704339056
        ]
      }
    },
    {
      "type": "Feature",
      "properties": {
        "norad_id": 61187,
        "name": "BEIDOU-3 M27 (C49)",
        "group": "gnss",
        "lat": -14.698070400855686,
        "lon": 139.57774751899944,
        "alt_km": 21534.714388177115,
        "timestamp": "2025-12-07T20:38:14.310657+00:00",
        "meta_object_name": "BEIDOU-3 M27 (C49)",
        "meta_object_id": "2024-168C",
        "meta_epoch": "2025-12-07T02:45:45.916992",
        "meta_mean_motion": 1.86229917,
        "meta_eccentricity": 0.00022869,
        "meta_inclination": 54.6424,
        "meta_ra_of_asc_node": 308.8981,
        "meta_arg_of_pericenter": 332.2687,
        "meta_mean_anomaly": 86.4832,
        "meta_ephemeris_type": 0,
        "meta_classification_type": "U",
        "meta_norad_cat_id": 61187,
        "meta_element_set_no": 999,
        "meta_rev_at_epoch": 568,
        "meta_bstar": 0,
        "meta_mean_motion_dot": -7.1e-07,
        "meta_mean_motion_ddot": 0,
        "tle_line1": "1 61187U 24168C   25341.11511478 -.00000071  00000+0  00000+0 0  9994",
        "tle_line2": "2 61187  54.6424 308.8981 0002286 332.2687  86.4832  1.86229917  5681"
      },
      "geometry": {
        "type": "Point",
        "coordinates": [
          139.57774751899944,
          -14.698070400855686
        ]
      }
    },
    {
      "type": "Feature",
      "properties": {
        "norad_id": 62339,
        "name": "GPS BIII-7  (PRN 01)",
        "group": "gnss",
        "lat": -18.63986327861893,
        "lon": -31.77616457063633,
        "alt_km": 20153.128659689133,
        "timestamp": "2025-12-07T20:38:14.310677+00:00",
        "meta_object_name": "GPS BIII-7  (PRN 01)",
        "meta_object_id": "2024-242A",
        "meta_epoch": "2025-12-07T03:32:57.244128",
        "meta_mean_motion": 2.00567416,
        "meta_eccentricity": 0.00118981,
        "meta_inclination": 54.925,
        "meta_ra_of_asc_node": 341.9665,
        "meta_arg_of_pericenter": 343.6843,
        "meta_mean_anomaly": 199.2403,
        "meta_ephemeris_type": 0,
        "meta_classification_type": "U",
        "meta_norad_cat_id": 62339,
        "meta_element_set_no": 999,
        "meta_rev_at_epoch": 740,
        "meta_bstar": 0,
        "meta_mean_motion_dot": -8.5e-07,
        "meta_mean_motion_ddot": 0,
        "tle_line1": "1 62339U 24242A   25341.14788477 -.00000085  00000+0  00000+0 0  9990",
        "tle_line2": "2 62339  54.9250 341.9665 0011898 343.6843 199.2403  2.00567416  7402"
      },
      "geometry": {
        "type": "Point",
        "coordinates": [
          -31.77616457063633,
          -18.63986327861893
        ]
      }
    },
    {
      "type": "Feature",
      "properties": {
        "norad_id": 62850,
        "name": "NVS-02 (IRNSS-1K)",
        "group": "gnss",
        "lat": -16.360589644747588,
        "lon": -160.6828833771948,
        "alt_km": 26196.265572124237,
        "timestamp": "2025-12-07T20:38:14.310696+00:00",
        "meta_object_name": "NVS-02 (IRNSS-1K)",
        "meta_object_id": "2025-020A",
        "meta_epoch": "2025-12-07T00:48:30.280320",
        "meta_mean_motion": 2.17588417,
        "meta_eccentricity": 0.73477446,
        "meta_inclination": 20.9986,
        "meta_ra_of_asc_node": 329.7247,
        "meta_arg_of_pericenter": 22.5304,
        "meta_mean_anomaly": 357.6525,
        "meta_ephemeris_type": 0,
        "meta_classification_type": "U",
        "meta_norad_cat_id": 62850,
        "meta_element_set_no": 999,
        "meta_rev_at_epoch": 679,
        "meta_bstar": 0.00027437185,
        "meta_mean_motion_dot": 2.29e-06,
        "meta_mean_motion_ddot": 0,
        "tle_line1": "1 62850U 25020A   25341.03368380  .00000229  00000+0  27437-3 0  9994",
        "tle_line2": "2 62850  20.9986 329.7247 7347744  22.5304 357.6525  2.17588417  6791"
      },
      "geometry": {
        "type": "Point",
        "coordinates": [
          -160.6828833771948,
          -16.360589644747588
        ]
      }
    },
    {
      "type": "Feature",
      "properties": {
        "norad_id": 63130,
        "name": "COSMOS 2584 (704K)",
        "group": "gnss",
        "lat": 39.441142941894405,
        "lon": -123.24265601944386,
        "alt_km": 19121.939149673646,
        "timestamp": "2025-12-07T20:38:14.310716+00:00",
        "meta_object_name": "COSMOS 2584 (704K)",
        "meta_object_id": "2025-042A",
        "meta_epoch": "2025-12-06T17:52:16.826016",
        "meta_mean_motion": 2.13102912,
        "meta_eccentricity": 0.00075908,
        "meta_inclination": 64.9729,
        "meta_ra_of_asc_node": 79.3502,
        "meta_arg_of_pericenter": 215.663,
        "meta_mean_anomaly": 144.2957,
        "meta_ephemeris_type": 0,
        "meta_classification_type": "U",
        "meta_norad_cat_id": 63130,
        "meta_element_set_no": 999,
        "meta_rev_at_epoch": 594,
        "meta_bstar": 0,
        "meta_mean_motion_dot": -1.5e-07,
        "meta_mean_motion_ddot": 0,
        "tle_line1": "1 63130U 25042A   25340.74463919 -.00000015  00000+0  00000+0 0  9998",
        "tle_line2": "2 63130  64.9729  79.3502 0007590 215.6630 144.2957  2.13102912  5943"
      },
      "geometry": {
        "type": "Point",
        "coordinates": [
          -123.24265601944386,
          39.441142941894405
        ]
      }
    }
  ]
}